[
  {
    "COMMENT": "GENERATED VIA SPACETRACK.ORG API",
    "ORIGINATOR": "18 SPCS",
    "NORAD_CAT_ID": "27421",
    "OBJECT_NAME": "SPOT 5",
    "OBJECT_TYPE": "PAYLOAD",
    "CLASSIFICATION_TYPE": "U",
    "INTLDES": "02021A",
    "EPOCH": "2023-07-30 18:29:05",
    "EPOCH_MICROSECONDS": "131392",
    "MEAN_MOTION": "14.52701445",
    "ECCENTRICITY": "0.0132618",
    "INCLINATION": "98.1371",
    "RA_OF_ASC_NODE": "273.4943",
    "ARG_OF_PERICENTER": "299.5307",
    "MEAN_ANOMALY": "59.272",
    "EPHEMERIS_TYPE": "0",
    "ELEMENT_SET_NO": "999",
    "REV_AT_EPOCH": "10996",
    "BSTAR": "0.000088232",
    "MEAN_MOTION_DOT": "0.00000354",
    "MEAN_MOTION_DDOT": "0",
    "FILE": "3967345",
    "TLE_LINE0": "0 SPOT 5",
    "TLE_LINE1": "1 27421U 02021A   23211.77019828  .00000354  00000-0  88232-4 0  9991",
    "TLE_LINE2": "2 27421  98.1371 273.4943 0132618 299.5307  59.2720 14.52701445109968",
    "OBJECT_ID": "2002-021A",
    "OBJECT_NUMBER": "27421",
    "SEMIMAJOR_AXIS": "7094.976",
    "PERIOD": "99.126",
    "APOGEE": "810.933",
    "PERIGEE": "622.749",
    "DECAYED": "0"
  },
  {
    "COMMENT": "GENERATED VIA SPACETRACK.ORG API",
    "ORIGINATOR": "18 SPCS",
    "NORAD_CAT_ID": "27421",
    "OBJECT_NAME": "SPOT 5",
    "OBJECT_TYPE": "PAYLOAD",
    "CLASSIFICATION_TYPE": "U",
    "INTLDES": "02021A",
    "EPOCH": "2023-07-31 02:45:00",
    "EPOCH_MICROSECONDS": "156096",
    "MEAN_MOTION": "14.52701875",
    "ECCENTRICITY": "0.0132613",
    "INCLINATION": "98.1371",
    "RA_OF_ASC_NODE": "273.8285",
    "ARG_OF_PERICENTER": "298.4534",
    "MEAN_ANOMALY": "60.3355",
    "EPHEMERIS_TYPE": "0",
    "ELEMENT_SET_NO": "999",
    "REV_AT_EPOCH": "11001",
    "BSTAR": "0.00009218",
    "MEAN_MOTION_DOT": "0.00000372",
    "MEAN_MOTION_DDOT": "0",
    "FILE": "3967620",
    "TLE_LINE0": "0 SPOT 5",
    "TLE_LINE1": "1 27421U 02021A   23212.11458514  .00000372  00000-0  92180-4 0  9996",
    "TLE_LINE2": "2 27421  98.1371 273.8285 0132613 298.4534  60.3355 14.52701875110018",
    "OBJECT_ID": "2002-021A",
    "OBJECT_NUMBER": "27421",
    "SEMIMAJOR_AXIS": "7094.975",
    "PERIOD": "99.126",
    "APOGEE": "810.928",
    "PERIGEE": "622.751",
    "DECAYED": "0"
  },
  {
    "COMMENT": "GENERATED VIA SPACETRACK.ORG API",
    "ORIGINATOR": "18 SPCS",
    "NORAD_CAT_ID": "27421",
    "OBJECT_NAME": "SPOT 5",
    "OBJECT_TYPE": "PAYLOAD",
    "CLASSIFICATION_TYPE": "U",
    "INTLDES": "02021A",
    "EPOCH": "2023-07-31 11:00:55",
    "EPOCH_MICROSECONDS": "184256",
    "MEAN_MOTION": "14.52702326",
    "ECCENTRICITY": "0.0132601",
    "INCLINATION": "98.1371",
    "RA_OF_ASC_NODE": "274.1628",
    "ARG_OF_PERICENTER": "297.3782",
    "MEAN_ANOMALY": "61.3972",
    "EPHEMERIS_TYPE": "0",
    "ELEMENT_SET_NO": "999",
    "REV_AT_EPOCH": "11006",
    "BSTAR": "0.000097232",
    "MEAN_MOTION_DOT": "0.00000395",
    "MEAN_MOTION_DDOT": "0",
    "FILE": "3967921",
    "TLE_LINE0": "0 SPOT 5",
    "TLE_LINE1": "1 27421U 02021A   23212.45897204  .00000395  00000-0  97232-4 0  9994",
    "TLE_LINE2": "2 27421  98.1371 274.1628 0132601 297.3782  61.3972 14.52702326110066",
    "OBJECT_ID": "2002-021A",
    "OBJECT_NUMBER": "27421",
    "SEMIMAJOR_AXIS": "7094.973",
    "PERIOD": "99.126",
    "APOGEE": "810.918",
    "PERIGEE": "622.758",
    "DECAYED": "0"
  },
  {
    "COMMENT": "GENERATED VIA SPACETRACK.ORG API",
    "ORIGINATOR": "18 SPCS",
    "NORAD_CAT_ID": "27421",
    "OBJECT_NAME": "SPOT 5",
    "OBJECT_TYPE": "PAYLOAD",
    "CLASSIFICATION_TYPE": "U",
    "INTLDES": "02021A",
    "EPOCH": "2023-07-31 17:37:39",
    "EPOCH_MICROSECONDS": "224928",
    "MEAN_MOTION": "14.52702629",
    "ECCENTRICITY": "0.0132589",
    "INCLINATION": "98.1371",
    "RA_OF_ASC_NODE": "274.4302",
    "ARG_OF_PERICENTER": "296.5209",
    "MEAN_ANOMALY": "62.2443",
    "EPHEMERIS_TYPE": "0",
    "ELEMENT_SET_NO": "999",
    "REV_AT_EPOCH": "11010",
    "BSTAR": "0.00010091",
    "MEAN_MOTION_DOT": "0.00000412",
    "MEAN_MOTION_DDOT": "0",
    "FILE": "3968255",
    "TLE_LINE0": "0 SPOT 5",
    "TLE_LINE1": "1 27421U 02021A   23212.73448177  .00000412  00000-0  10091-3 0  9993",
    "TLE_LINE2": "2 27421  98.1371 274.4302 0132589 296.5209  62.2443 14.52702629110102",
    "OBJECT_ID": "2002-021A",
    "OBJECT_NUMBER": "27421",
    "SEMIMAJOR_AXIS": "7094.972",
    "PERIOD": "99.126",
    "APOGEE": "810.909",
    "PERIGEE": "622.766",
    "DECAYED": "0"
  },
  {
    "COMMENT": "GENERATED VIA SPACETRACK.ORG API",
    "ORIGINATOR": "18 SPCS",
    "NORAD_CAT_ID": "27421",
    "OBJECT_NAME": "SPOT 5",
    "OBJECT_TYPE": "PAYLOAD",
    "CLASSIFICATION_TYPE": "U",
    "INTLDES": "02021A",
    "EPOCH": "2023-08-01 01:53:34",
    "EPOCH_MICROSECONDS": "254816",
    "MEAN_MOTION": "14.5270297",
    "ECCENTRICITY": "0.0132582",
    "INCLINATION": "98.137",
    "RA_OF_ASC_NODE": "274.7644",
    "ARG_OF_PERICENTER": "295.446",
    "MEAN_ANOMALY": "63.3067",
    "EPHEMERIS_TYPE": "0",
    "ELEMENT_SET_NO": "999",
    "REV_AT_EPOCH": "11015",
    "BSTAR": "0.00010147",
    "MEAN_MOTION_DOT": "0.00000415",
    "MEAN_MOTION_DDOT": "0",
    "FILE": "3968525",
    "TLE_LINE0": "0 SPOT 5",
    "TLE_LINE1": "1 27421U 02021A   23213.07886869  .00000415  00000-0  10147-3 0  9990",
    "TLE_LINE2": "2 27421  98.1370 274.7644 0132582 295.4460  63.3067 14.52702970110151",
    "OBJECT_ID": "2002-021A",
    "OBJECT_NUMBER": "27421",
    "SEMIMAJOR_AXIS": "7094.971",
    "PERIOD": "99.126",
    "APOGEE": "810.903",
    "PERIGEE": "622.769",
    "DECAYED": "0"
  },
  {
    "COMMENT": "GENERATED VIA SPACETRACK.ORG API",
    "ORIGINATOR": "18 SPCS",
    "NORAD_CAT_ID": "27421",
    "OBJECT_NAME": "SPOT 5",
    "OBJECT_TYPE": "PAYLOAD",
    "CLASSIFICATION_TYPE": "U",
    "INTLDES": "02021A",
    "EPOCH": "2023-08-01 18:25:24",
    "EPOCH_MICROSECONDS": "343104",
    "MEAN_MOTION": "14.52703538",
    "ECCENTRICITY": "0.0132557",
    "INCLINATION": "98.137",
    "RA_OF_ASC_NODE": "275.4329",
    "ARG_OF_PERICENTER": "293.3005",
    "MEAN_ANOMALY": "65.4286",
    "EPHEMERIS_TYPE": "0",
    "ELEMENT_SET_NO": "999",
    "REV_AT_EPOCH": "11025",
    "BSTAR": "0.00010033",
    "MEAN_MOTION_DOT": "0.0000041",
    "MEAN_MOTION_DDOT": "0",
    "FILE": "3968940",
    "TLE_LINE0": "0 SPOT 5",
    "TLE_LINE1": "1 27421U 02021A   23213.76764286  .00000410  00000-0  10033-3 0  9993",
    "TLE_LINE2": "2 27421  98.1370 275.4329 0132557 293.3005  65.4286 14.52703538110251",
    "OBJECT_ID": "2002-021A",
    "OBJECT_NUMBER": "27421",
    "SEMIMAJOR_AXIS": "7094.969",
    "PERIOD": "99.126",
    "APOGEE": "810.883",
    "PERIGEE": "622.785",
    "DECAYED": "0"
  },
  {
    "COMMENT": "GENERATED VIA SPACETRACK.ORG API",
    "ORIGINATOR": "18 SPCS",
    "NORAD_CAT_ID": "27421",
    "OBJECT_NAME": "SPOT 5",
    "OBJECT_TYPE": "PAYLOAD",
    "CLASSIFICATION_TYPE": "U",
    "INTLDES": "02021A",
    "EPOCH": "2023-08-02 02:41:19",
    "EPOCH_MICROSECONDS": "378176",
    "MEAN_MOTION": "14.52703904",
    "ECCENTRICITY": "0.0132549",
    "INCLINATION": "98.1369",
    "RA_OF_ASC_NODE": "275.7672",
    "ARG_OF_PERICENTER": "292.2256",
    "MEAN_ANOMALY": "66.4924",
    "EPHEMERIS_TYPE": "0",
    "ELEMENT_SET_NO": "999",
    "REV_AT_EPOCH": "11030",
    "BSTAR": "0.00010149",
    "MEAN_MOTION_DOT": "0.00000415",
    "MEAN_MOTION_DDOT": "0",
    "FILE": "3969327",
    "TLE_LINE0": "0 SPOT 5",
    "TLE_LINE1": "1 27421U 02021A   23214.11202984  .00000415  00000-0  10149-3 0  9998",
    "TLE_LINE2": "2 27421  98.1369 275.7672 0132549 292.2256  66.4924 14.52703904110303",
    "OBJECT_ID": "2002-021A",
    "OBJECT_NUMBER": "27421",
    "SEMIMAJOR_AXIS": "7094.968",
    "PERIOD": "99.125",
    "APOGEE": "810.876",
    "PERIGEE": "622.790",
    "DECAYED": "0"
  },
  {
    "COMMENT": "GENERATED VIA SPACETRACK.ORG API",
    "ORIGINATOR": "18 SPCS",
    "NORAD_CAT_ID": "27421",
    "OBJECT_NAME": "SPOT 5",
    "OBJECT_TYPE": "PAYLOAD",
    "CLASSIFICATION_TYPE": "U",
    "INTLDES": "02021A",
    "EPOCH": "2023-08-02 10:57:14",
    "EPOCH_MICROSECONDS": "429664",
    "MEAN_MOTION": "14.52704129",
    "ECCENTRICITY": "0.0132537",
    "INCLINATION": "98.1369",
    "RA_OF_ASC_NODE": "276.1014",
    "ARG_OF_PERICENTER": "291.1508",
    "MEAN_ANOMALY": "67.5567",
    "EPHEMERIS_TYPE": "0",
    "ELEMENT_SET_NO": "999",
    "REV_AT_EPOCH": "11035",
    "BSTAR": "0.000099213",
    "MEAN_MOTION_DOT": "0.00000404",
    "MEAN_MOTION_DDOT": "0",
    "FILE": "3969570",
    "TLE_LINE0": "0 SPOT 5",
    "TLE_LINE1": "1 27421U 02021A   23214.45641701  .00000404  00000-0  99213-4 0  9997",
    "TLE_LINE2": "2 27421  98.1369 276.1014 0132537 291.1508  67.5567 14.52704129110353",
    "OBJECT_ID": "2002-021A",
    "OBJECT_NUMBER": "27421",
    "SEMIMAJOR_AXIS": "7094.967",
    "PERIOD": "99.125",
    "APOGEE": "810.867",
    "PERIGEE": "622.798",
    "DECAYED": "0"
  },
  {
    "COMMENT": "GENERATED VIA SPACETRACK.ORG API",
    "ORIGINATOR": "18 SPCS",
    "NORAD_CAT_ID": "27421",
    "OBJECT_NAME": "SPOT 5",
    "OBJECT_TYPE": "PAYLOAD",
    "CLASSIFICATION_TYPE": "U",
    "INTLDES": "02021A",
    "EPOCH": "2023-08-02 17:33:58",
    "EPOCH_MICROSECONDS": "459104",
    "MEAN_MOTION": "14.52704514",
    "ECCENTRICITY": "0.0132523",
    "INCLINATION": "98.1369",
    "RA_OF_ASC_NODE": "276.3688",
    "ARG_OF_PERICENTER": "290.2947",
    "MEAN_ANOMALY": "68.4048",
    "EPHEMERIS_TYPE": "0",
    "ELEMENT_SET_NO": "999",
    "REV_AT_EPOCH": "11039",
    "BSTAR": "0.00010318",
    "MEAN_MOTION_DOT": "0.00000423",
    "MEAN_MOTION_DDOT": "0",
    "FILE": "3969882",
    "TLE_LINE0": "0 SPOT 5",
    "TLE_LINE1": "1 27421U 02021A   23214.73192661  .00000423  00000-0  10318-3 0  9993",
    "TLE_LINE2": "2 27421  98.1369 276.3688 0132523 290.2947  68.4048 14.52704514110390",
    "OBJECT_ID": "2002-021A",
    "OBJECT_NUMBER": "27421",
    "SEMIMAJOR_AXIS": "7094.966",
    "PERIOD": "99.125",
    "APOGEE": "810.856",
    "PERIGEE": "622.806",
    "DECAYED": "0"
  }
]